#dV2023  1  1 22  0  0.00000000    1682       CTS   FIT  GFZ
## 2243  79200.00000000    30.00000000 59945 0.9166666666667
+    1   L65  0  0  0  0  0  0  0  0  0  0  0  0  0  0  0  0
+          0  0  0  0  0  0  0  0  0  0  0  0  0  0  0  0  0
+          0  0  0  0  0  0  0  0  0  0  0  0  0  0  0  0  0
+          0  0  0  0  0  0  0  0  0  0  0  0  0  0  0  0  0
+          0  0  0  0  0  0  0  0  0  0  0  0  0  0  0  0  0
++         0  0  0  0  0  0  0  0  0  0  0  0  0  0  0  0  0
++         0  0  0  0  0  0  0  0  0  0  0  0  0  0  0  0  0
++         0  0  0  0  0  0  0  0  0  0  0  0  0  0  0  0  0
++         0  0  0  0  0  0  0  0  0  0  0  0  0  0  0  0  0
++         0  0  0  0  0  0  0  0  0  0  0  0  0  0  0  0  0
%c L  cc GPS ccc cccc cccc cccc cccc ccccc ccccc ccccc ccccc
%c cc cc ccc ccc cccc cccc cccc cccc ccccc ccccc ccccc ccccc
%f  0.0000000  0.000000000  0.00000000000  0.000000000000000
%f  0.0000000  0.000000000  0.00000000000  0.000000000000000
%i    0    0    0    0      0      0      0      0         0
%i    0    0    0    0      0      0      0      0         0
/* CCCCCCCCCCCCCCCCCCCCCCCCCCCCCCCCCCCCCCCCCCCCCCCCCCCCCCCCCCCCCCCCCCCCCCCCCCCCC
/* C                             GFZ RSO-ORBIT                                 C
/* C DOI: https://doi.org/10.5880/GFZ_ORBIT/RSO/L65_G_v02                      C
/* C                                                                           C
/* C DORIS        RMS: not applicable                                          C
/* C GNSS-E Code  RMS: not applicable                                          C
/* C GNSS-E Phase RMS: not applicable                                          C
/* C GNSS-G Code  RMS:  50.025 [cm]   Obs.acc.:     14458 Obs.eli.:      1137  C
/* C GNSS-G Phase RMS:   4.126 [mm]   Obs.acc.:     14458 Obs.eli.:      1137  C
/* C SLR          RMS:   1.727 [cm]   Obs.acc.:        16 Obs.eli.:         0  C
/* C                                                                           C
/* CCCCCCCCCCCCCCCCCCCCCCCCCCCCCCCCCCCCCCCCCCCCCCCCCCCCCCCCCCCCCCCCCCCCCCCCCCCCC
*  2023  1  2  4 48  0.00000000
PL65  -3447.259192  -1235.301810   5806.423534  16092.168293
VL65  60570.697730  21866.630424  40634.539368 999999.999999
*  2023  1  2  4 48 30.00000000
PL65  -3263.540528  -1169.434948   5925.088222  16092.634534
VL65  61897.261389  22039.600273  38468.032026 999999.999999
*  2023  1  2  4 49  0.00000000
PL65  -3075.943294  -1103.094209   6037.189619  16093.100862
VL65  63156.157373  22182.571217  36259.418924 999999.999999
*  2023  1  2  4 49 30.00000000
PL65  -2884.672732  -1036.369366   6142.605087  16093.567249
VL65  64345.906822  22295.698876  34011.158597 999999.999999
*  2023  1  2  4 50  0.00000000
PL65  -2689.938403   -969.349665   6241.219420  16094.033531
VL65  65465.108666  22379.178516  31725.748905 999999.999999
*  2023  1  2  4 50 30.00000000
PL65  -2491.953953   -902.123710   6332.924965  16094.499750
VL65  66512.440915  22433.244186  29405.724873 999999.999999
*  2023  1  2  4 51  0.00000000
PL65  -2290.936871   -834.779343   6417.621724  16094.965994
VL65  67486.662422  22458.168161  27053.656105 999999.999999
*  2023  1  2  4 51 30.00000000
PL65  -2087.108250   -767.403534   6495.217457  16095.432334
VL65  68386.614715  22454.259828  24672.143244 999999.999999
*  2023  1  2  4 52  0.00000000
PL65  -1880.692530   -700.082273   6565.627766  16095.898637
VL65  69211.222677  22421.863766  22263.814309 999999.999999
*  2023  1  2  4 52 30.00000000
PL65  -1671.917253   -632.900462   6628.776178  16096.364914
VL65  69959.494384  22361.358484  19831.322142 999999.999999
*  2023  1  2  4 53  0.00000000
PL65  -1461.012812   -565.941820   6684.594211  16096.831152
VL65  70630.521175  22273.156225  17377.342561 999999.999999
*  2023  1  2  4 53 30.00000000
PL65  -1248.212198   -499.288777   6733.021443  16097.297336
VL65  71223.478776  22157.702851  14904.572769 999999.999999
*  2023  1  2  4 54  0.00000000
PL65  -1033.750749   -433.022376   6774.005573  16097.763526
VL65  71737.629490  22015.477258  12415.728252 999999.999999
*  2023  1  2  4 54 30.00000000
PL65   -817.865882   -367.222176   6807.502467  16098.229770
VL65  72172.322452  21846.990264   9913.538499 999999.999999
*  2023  1  2  4 55  0.00000000
PL65   -600.796840   -301.966156   6833.476199 999999.999999
VL65  72526.992784  21652.783259   7400.744960 999999.999999
*  2023  1  2  4 55 30.00000000
PL65   -382.784429   -237.330626   6851.899085  16099.162417
VL65  72801.162673  21433.427275   4880.100096 999999.999999
*  2023  1  2  4 56  0.00000000
PL65   -164.070756   -173.390142   6862.751709  16099.628920
VL65  72994.443459  21189.522641   2354.364362 999999.999999
*  2023  1  2  4 56 30.00000000
PL65     55.101041   -110.217411   6866.022944  16100.095398
VL65  73106.536281  20921.698040   -173.698123 999999.999999
*  2023  1  2  4 57  0.00000000
PL65    274.487062    -47.883219   6861.709958  16100.561944
VL65  73137.231636  20630.608644  -2701.322865 999999.999999
*  2023  1  2  4 57 30.00000000
PL65    493.842910     13.543655   6849.818208  16101.028474
VL65  73086.409092  20316.934333  -5225.747248 999999.999999
*  2023  1  2  4 58  0.00000000
PL65    712.923964     73.996505   6830.361434  16101.494957
VL65  72954.037549  19981.378828  -7744.212304 999999.999999
*  2023  1  2  4 58 30.00000000
PL65    931.485643    133.410773   6803.361646  16101.961352
VL65  72740.176134  19624.669377 -10253.965443 999999.999999
*  2023  1  2  4 59  0.00000000
PL65   1149.283677    191.724116   6768.849096  16102.427506
VL65  72444.974152  19247.555356 -12752.264052 999999.999999
*  2023  1  2  4 59 30.00000000
PL65   1366.074383    248.876470   6726.862247  16102.893566
VL65  72068.670576  18850.806568 -15236.377800 999999.999999
*  2023  1  2  5  0  0.00000000
PL65   1581.614925    304.810110   6677.447731  16103.359913
VL65  71611.593985  18435.212576 -17703.591142 999999.999999
*  2023  1  2  5  0 30.00000000
PL65   1795.663588    359.469708   6620.660299  16103.826247
VL65  71074.162080  18001.581861 -20151.206071 999999.999999
*  2023  1  2  5  1  0.00000000
PL65   2007.980046    412.802390   6556.562772  16104.292606
VL65  70456.881915  17550.740531 -22576.544244 999999.999999
*  2023  1  2  5  1 30.00000000
PL65   2218.325626    464.757783   6485.225967  16104.759147
VL65  69760.350653  17083.531077 -24976.950113 999999.999999
*  2023  1  2  5  2  0.00000000
PL65   2426.463583    515.288065   6406.728633  16105.225587
VL65  68985.255334  16600.810493 -27349.794827 999999.999999
*  2023  1  2  5  2 30.00000000
PL65   2632.159367    564.348004   6321.157359  16105.692002
VL65  68132.371716  16103.448475 -29692.479618 999999.999999
*  2023  1  2  5  3  0.00000000
PL65   2835.180885    611.894995   6228.606483  16106.158333
VL65  67202.562725  15592.326419 -32002.438437 999999.999999
*  2023  1  2  5  3 30.00000000
PL65   3035.298763    657.889094   6129.177987  16106.624548
VL65  66196.777004  15068.336433 -34277.139829 999999.999999
*  2023  1  2  5  4  0.00000000
PL65   3232.286601    702.293047   6022.981398  16107.090929
VL65  65116.048383  14532.380533 -36514.088282 999999.999999
*  2023  1  2  5  4 30.00000000
PL65   3425.921227    745.072322   5910.133669  16107.557349
VL65  63961.496272  13985.369875 -38710.827152 999999.999999
*  2023  1  2  5  5  0.00000000
PL65   3615.982956    786.195130   5790.759060  16108.023674
VL65  62734.324400  13428.222794 -40864.942858 999999.999999
*  2023  1  2  5  5 30.00000000
PL65   3802.255837    825.632445   5664.989005  16108.490012
VL65  61435.818586  12861.862273 -42974.066948 999999.999999
*  2023  1  2  5  6  0.00000000
PL65   3984.527898    863.358016   5532.961973  16108.956377
VL65  60067.345993  12287.214523 -45035.877707 999999.999999
*  2023  1  2  5  6 30.00000000
PL65   4162.591391    899.348374   5394.823326  16109.422883
VL65  58630.353512  11705.208152 -47048.102483 999999.999999
*  2023  1  2  5  7  0.00000000
PL65   4336.243023    933.582837   5250.725169  16109.889363
VL65  57126.366736  11116.773264 -49008.518276 999999.999999
*  2023  1  2  5  7 30.00000000
PL65   4505.284200    966.043516   5100.826198  16110.355859
VL65  55556.991336  10522.840571 -50914.954207 999999.999999
*  2023  1  2  5  8  0.00000000
PL65   4669.521265    996.715313   4945.291539  16110.822244
VL65  53923.912456   9924.340213 -52765.296397 999999.999999
*  2023  1  2  5  8 30.00000000
PL65   4828.765731   1025.585918   4784.292568  16111.288440
VL65  52228.892033   9322.200548 -54557.492874 999999.999999
*  2023  1  2  5  9  0.00000000
PL65   4982.834507   1052.645801   4618.006717  16111.754784
VL65  50473.763751   8717.346343 -56289.556262 999999.999999
*  2023  1  2  5  9 30.00000000
PL65   5131.550107   1077.888201   4446.617290  16112.221326
VL65  48660.431438   8110.697343 -57959.562146 999999.999999
*  2023  1  2  5 10  0.00000000
PL65   5274.740865   1101.309105   4270.313263  16112.687891
VL65  46790.870758   7503.167684 -59565.651822 999999.999999
*  2023  1  2  5 10 30.00000000
PL65   5412.241145   1122.907235   4089.289085  16113.154342
VL65  44867.125877   6895.665029 -61106.037210 999999.999999
*  2023  1  2  5 11  0.00000000
PL65   5543.891543   1142.684023   3903.744462  16113.620712
VL65  42891.306113   6289.089474 -62579.002690 999999.999999
*  2023  1  2  5 11 30.00000000
PL65   5669.539076   1160.643589   3713.884132  16114.086948
VL65  40865.583033   5684.331107 -63982.907871 999999.999999
*  2023  1  2  5 12  0.00000000
PL65   5789.037366   1176.792704   3519.917642  16114.553309
VL65  38792.186759   5082.267265 -65316.188232 999999.999999
*  2023  1  2  5 12 30.00000000
PL65   5902.246809   1191.140751   3322.059119  16115.019651
VL65  36673.404585   4483.761355 -66577.354993 999999.999999
*  2023  1  2  5 13  0.00000000
PL65   6009.034749   1203.699680   3120.527040  16115.485970
VL65  34511.579814   3889.662514 -67764.996986 999999.999999
EOF
